GOES 1 [-]              
1 08366U 75100A   08204.48900421  .00000018  00000-0  10000-3 0  7540
2 08366  14.4394 350.4468 0003356 222.5011 137.5199  1.00294725119646
GOES 2 [-]              
1 10061U 77048A   08203.55238283  .00000072  00000-0  10000-3 0  4711
2 10061  14.5903 358.8578 0017215 239.5468 120.3319  0.99396794 58513
GOES 3 [P]              
1 10953U 78062A   08204.46086576 -.00000117  00000-0  10000-3 0  1780
2 10953  14.2411   2.7008 0000948  20.1918 339.8575  1.00279604 63369
GOES 4 [-]              
1 11964U 80074A   08203.25862802 -.00000262  00000-0  10000-3 0    71
2 11964  14.5328   6.4124 0034457 283.1534  76.5375  0.99233767 62740
GOES 5 [-]              
1 12472U 81049A   08205.47615528 -.00000170  00000-0  10000-3 0   513
2 12472  13.3515  16.9572 0004048 174.3063 185.7520  1.00338498 57417
GOES 6 [-]              
1 14050U 83041A   08202.57420266  .00000003  00000-0  10000-3 0   538
2 14050  12.9321  22.1285 0001169 140.6054 219.4691  1.00315616150480
GOES 7 [-]              
1 17561U 87022A   08203.24614179  .00000055  00000-0  10000-3 0  5255
2 17561  11.4862  40.4163 0003915 191.8061 337.5683  1.00286770 61593
GOES 8 [-]              
1 23051U 94022A   08203.95126544 -.00000257  00000-0  10000-3 0  4058
2 23051   4.9098  78.4203 0006248 147.3723 212.6728  0.98908612 59458
GOES 9 [P]              
1 23581U 95025A   08199.82604710 -.00000056  00000-0  10000-3 0  6718
2 23581   4.4661  74.7605 0002909 325.9643  33.9114  0.98801737 48122
GOES 10 [+]             
1 24786U 97019A   08203.36770079 -.00000278  00000-0  10000-3 0  4802
2 24786   2.7996  78.8912 0002006  93.4838 199.9570  1.00269821 41183
GOES 11 [+]             
1 26352U 00022A   08205.34479869  .00000098  00000-0  00000+0 0  8969
2 26352   0.3933 263.3244 0004881 291.7812  95.1334  1.00278562 30103
GOES 12 [+]             
1 26871U 01031A   08205.39064221 -.00000241  00000-0  00000+0 0  6434
2 26871   0.0841  99.3748 0003460 353.6706 274.2948  1.00269320 25716
GOES 13 [S]             
1 29155U 06018A   08204.56854861 -.00000079  00000-0  10000-3 0  4552
2 29155   0.4070  82.7813 0000935  83.0642 234.2826  1.00271729  7951
